[{"OBJECT_NAME":"STARLINK-34828","OBJECT_ID":"2025-190C","EPOCH":"2026-03-09T12:33:50.595264","MEAN_MOTION":15.30183945,"ECCENTRICITY":0.00016943,"INCLINATION":53.1616,"RA_OF_ASC_NODE":168.6754,"ARG_OF_PERICENTER":139.7643,"MEAN_ANOMALY":220.3484,"EPHEMERIS_TYPE":0,"CLASSIFICATION_TYPE":"U","NORAD_CAT_ID":65353,"ELEMENT_SET_NO":999,"REV_AT_EPOCH":2973,"BSTAR":0.00057318022,"MEAN_MOTION_DOT":0.00016646,"MEAN_MOTION_DDOT":0},{"OBJECT_NAME":"SL-3 R\/B","OBJECT_ID":"1981-065B","EPOCH":"2026-03-09T21:58:16.284000","MEAN_MOTION":15.33300883,"ECCENTRICITY":0.00117648,"INCLINATION":97.6337,"RA_OF_ASC_NODE":111.1786,"ARG_OF_PERICENTER":10.529,"MEAN_ANOMALY":349.6196,"EPHEMERIS_TYPE":0,"CLASSIFICATION_TYPE":"U","NORAD_CAT_ID":12586,"ELEMENT_SET_NO":999,"REV_AT_EPOCH":43499,"BSTAR":0.00030084921,"MEAN_MOTION_DOT":9.62e-5,"MEAN_MOTION_DDOT":0}]
